{
    "links": {
        "self": "http://www.neowsapp.com/rest/v1/neo/3837716?api_key=iIulBulltgU6a56xZRHN4H3l9WmuAYTsLGpBGhQ2"
    },
    "id": "3837716",
    "neo_reference_id": "3837716",
    "name": "(2019 AR6)",
    "designation": "2019 AR6",
    "nasa_jpl_url": "http://ssd.jpl.nasa.gov/sbdb.cgi?sstr=3837716",
    "absolute_magnitude_h": 21.5,
    "estimated_diameter": {
        "kilometers": {
            "estimated_diameter_min": 0.1332155667,
            "estimated_diameter_max": 0.2978790628
        },
        "meters": {
            "estimated_diameter_min": 133.2155666981,
            "estimated_diameter_max": 297.8790627982
        },
        "miles": {
            "estimated_diameter_min": 0.0827762899,
            "estimated_diameter_max": 0.1850934111
        },
        "feet": {
            "estimated_diameter_min": 437.0589598459,
            "estimated_diameter_max": 977.2935443908
        }
    },
    "is_potentially_hazardous_asteroid": false,
    "close_approach_data": [
        {
            "close_approach_date": "1992-12-11",
            "close_approach_date_full": "1992-Dec-11 02:45",
            "epoch_date_close_approach": 724041900000,
            "relative_velocity": {
                "kilometers_per_second": "17.0817978535",
                "kilometers_per_hour": "61494.4722726756",
                "miles_per_hour": "38210.2736185411"
            },
            "miss_distance": {
                "astronomical": "0.4316368822",
                "lunar": "167.9067471758",
                "kilometers": "64571958.190560914",
                "miles": "40123154.2842280532"
            },
            "orbiting_body": "Earth"
        },
        {
            "close_approach_date": "2005-12-08",
            "close_approach_date_full": "2005-Dec-08 01:42",
            "epoch_date_close_approach": 1134006120000,
            "relative_velocity": {
                "kilometers_per_second": "14.7246299769",
                "kilometers_per_hour": "53008.6679166935",
                "miles_per_hour": "32937.5247952366"
            },
            "miss_distance": {
                "astronomical": "0.3524264998",
                "lunar": "137.0939084222",
                "kilometers": "52722253.701635426",
                "miles": "32760089.3446678388"
            },
            "orbiting_body": "Earth"
        },
        {
            "close_approach_date": "2018-12-07",
            "close_approach_date_full": "2018-Dec-07 13:24",
            "epoch_date_close_approach": 1544189040000,
            "relative_velocity": {
                "kilometers_per_second": "13.9259503237",
                "kilometers_per_hour": "50133.4211654802",
                "miles_per_hour": "31150.9582791841"
            },
            "miss_distance": {
                "astronomical": "0.3269561727",
                "lunar": "127.1859511803",
                "kilometers": "48911947.019272149",
                "miles": "30392474.5600036962"
            },
            "orbiting_body": "Earth"
        },
        {
            "close_approach_date": "2031-12-07",
            "close_approach_date_full": "2031-Dec-07 18:32",
            "epoch_date_close_approach": 1954434720000,
            "relative_velocity": {
                "kilometers_per_second": "13.2327966312",
                "kilometers_per_hour": "47638.0678722307",
                "miles_per_hour": "29600.4427842758"
            },
            "miss_distance": {
                "astronomical": "0.2981800845",
                "lunar": "115.9920528705",
                "kilometers": "44607105.517620015",
                "miles": "27717570.087845607"
            },
            "orbiting_body": "Earth"
        },
        {
            "close_approach_date": "2044-12-08",
            "close_approach_date_full": "2044-Dec-08 02:41",
            "epoch_date_close_approach": 2364777660000,
            "relative_velocity": {
                "kilometers_per_second": "11.8174299233",
                "kilometers_per_hour": "42542.7477239336",
                "miles_per_hour": "26434.4089954631"
            },
            "miss_distance": {
                "astronomical": "0.4030546529",
                "lunar": "156.7882599781",
                "kilometers": "60296117.567429323",
                "miles": "37466270.1223697374"
            },
            "orbiting_body": "Earth"
        }
    ],
    "orbital_data": {
        "orbit_id": "4",
        "orbit_determination_date": "2020-09-11 07:41:47",
        "first_observation_date": "2018-11-29",
        "last_observation_date": "2019-01-11",
        "data_arc_in_days": 43,
        "observations_used": 34,
        "orbit_uncertainty": "6",
        "minimum_orbit_intersection": ".307007",
        "jupiter_tisserand_invariant": "3.069",
        "epoch_osculation": "2459000.5",
        "eccentricity": ".5433100729059936",
        "semi_major_axis": "2.654992250685452",
        "inclination": "22.34446792827791",
        "ascending_node_longitude": "273.0977772461921",
        "orbital_period": "1580.131801055229",
        "perihelion_distance": "1.212508217400691",
        "perihelion_argument": "134.5136680519977",
        "aphelion_distance": "4.097476283970212",
        "perihelion_time": "2458437.195724321456",
        "mean_anomaly": "128.3371039737639",
        "mean_motion": ".2278290961295685",
        "equinox": "J2000",
        "orbit_class": {
            "orbit_class_type": "AMO",
            "orbit_class_description": "Near-Earth asteroid orbits similar to that of 1221 Amor",
            "orbit_class_range": "1.017 AU < q (perihelion) < 1.3 AU"
        }
    },
    "is_sentry_object": false
}